GLOBALSTAR M001         
1 25162U 98008A   25348.76116817 -.00000049  00000+0  36356-3 0  9999
2 25162  52.0005 167.6428 0000258 302.5053  70.6374 12.38223656266084
GLOBALSTAR M004         
1 25163U 98008B   25349.02222458 -.00000070  00000+0  18874-3 0  9998
2 25163  51.9988 222.4631 0003154 351.1779 147.8187 12.63411036284541
GLOBALSTAR M002         
1 25164U 98008C   25348.71334728 -.00000056  00000+0  39407-3 0  9997
2 25164  51.9982 147.5622 0002634 108.7552 251.3554 11.61514732205041
GLOBALSTAR M003         
1 25165U 98008D   25349.36915906 -.00000194  00000+0 -11191-2 0  9996
2 25165  51.9927  26.7014 0007713 298.2310  75.0354 12.12042321255191
GLOBALSTAR M014         
1 25306U 98023A   25349.24550046 -.00000087  00000+0 -18172-3 0  9995
2 25306  51.9854  65.6438 0000366 359.9566  13.3942 11.65483624212287
GLOBALSTAR M006         
1 25307U 98023B   25349.13723697 -.00000066  00000+0  19784-3 0  9994
2 25307  51.9921 125.1540 0004117  85.7058  85.0499 11.58178848237794
GLOBALSTAR M015         
1 25308U 98023C   25349.03955887 -.00000062  00000+0  26413-3 0  9995
2 25308  51.9808 232.1615 0013499  40.1363  98.0368 11.48862738214867
GLOBALSTAR M008         
1 25309U 98023D   25349.29053096 -.00000087  00000+0  74536-4 0  9992
2 25309  51.9988  32.9845 0002849 189.7628 249.6630 12.36076715260248
